NORAD_CAT_ID,OBJECT_NAME,OBJECT_TYPE,EPOCH,MEAN_MOTION,ECCENTRICITY,INCLINATION,RA_OF_ASC_NODE,ARG_OF_PERICENTER,MEAN_ANOMALY,BSTAR,MEAN_MOTION_DOT,MEAN_MOTION_DDOT,TLE_LINE0,TLE_LINE1,TLE_LINE2,SEMIMAJOR_AXIS,PERIOD,APOGEE,PERIGEE,DECAYED
49423.0,STARLINK-3149,PAYLOAD,2024-02-20 06:00:00,15.07190995,0.000148,53.2178,349.0353,87.7602,349.8998,0.00040952,5.953e-05,0.0,0 STARLINK-3149,1 49423U 21104R   24051.25001157  .00005953  00000-0  40952-3 0  9998,2 49423  53.2178 349.0353 0001480  87.7602 349.8998 15.07190995126724,6922.925,95.542,545.815,543.766,0.0
49423.0,STARLINK-3149,PAYLOAD,2024-02-20 14:00:01,15.07186157,0.0001456,53.218,347.541,99.4775,347.8034,0.0020939,0.00031717,0.0,0 STARLINK-3149,1 49423U 21104R   24051.58334491  .00031717  00000-0  20939-2 0  9993,2 49423  53.2180 347.5410 0001456  99.4775 347.8034 15.07186157  5773,6922.94,95.542,545.813,543.797,0.0
49423.0,STARLINK-3149,PAYLOAD,2024-02-20 22:00:00,15.07170545,0.0001618,53.2181,346.0488,93.7838,3.0793,0.0003518,5.071e-05,0.0,0 STARLINK-3149,1 49423U 21104R   24051.91667824  .00005071  00000-0  35180-3 0  9998,2 49423  53.2181 346.0488 0001618  93.7838   3.0793 15.07170545126827,6922.988,95.543,545.973,543.733,0.0
49423.0,STARLINK-3149,PAYLOAD,2024-02-21 00:00:00,15.07173101,0.0001615,53.2181,345.6762,91.1421,98.1179,8.2815e-05,9.76e-06,0.0,0 STARLINK-3149,1 49423U 21104R   24052.00001157  .00000976  00000-0  82815-4 0  9997,2 49423  53.2181 345.6762 0001615  91.1421  98.1179 15.07173101  5835,6922.98,95.543,545.963,543.727,0.0
49423.0,STARLINK-3149,PAYLOAD,2024-02-21 14:00:01,15.07185657,0.0001546,53.2182,343.0636,95.3897,20.6702,0.0024746,0.00037566,0.0,0 STARLINK-3149,1 49423U 21104R   24052.58334491  .00037566  00000-0  24746-2 0  9992,2 49423  53.2182 343.0636 0001546  95.3897  20.6702 15.07185657  5723,6922.942,95.542,545.877,543.736,0.0
49423.0,STARLINK-3149,PAYLOAD,2024-02-21 22:00:00,15.07232463,0.0001604,53.2182,341.5715,95.2941,30.3788,-0.0011221,-0.00017335,0.0,0 STARLINK-3149,1 49423U 21104R   24052.91667824 -.00017335  00000-0 -11221-2 0  9996,2 49423  53.2182 341.5715 0001604  95.2941  30.3788 15.07232463126979,6922.798,95.539,545.774,543.553,0.0
49423.0,STARLINK-3149,PAYLOAD,2024-02-22 00:00:00,15.07236241,0.0001594,53.2181,341.199,92.4371,125.6494,-0.002177,-0.00033295,0.0,0 STARLINK-3149,1 49423U 21104R   24053.00001157 -.00033295  00000-0 -21770-2 0  9991,2 49423  53.2181 341.1990 0001594  92.4371 125.6494 15.07236241  5788,6922.787,95.539,545.755,543.548,0.0
49423.0,STARLINK-3149,PAYLOAD,2024-02-22 11:46:05,15.07212754,0.0001441,53.2184,339.0009,84.8318,275.2838,0.00012989,1.695e-05,0.0,0 STARLINK-3149,1 49423U 21104R   24053.49034010  .00001695  00000-0  12989-3 0  9998,2 49423  53.2184 339.0009 0001441  84.8318 275.2838 15.07212754127068,6922.859,95.541,545.721,543.726,0.0
49423.0,STARLINK-3149,PAYLOAD,2024-02-22 22:54:31,15.07201097,0.0001472,53.2181,336.9227,84.6624,275.4536,0.00028066,3.991e-05,0.0,0 STARLINK-3149,1 49423U 21104R   24053.95452755  .00003991  00000-0  28066-3 0  9993,2 49423  53.2181 336.9227 0001472  84.6624 275.4536 15.07201097126047,6922.894,95.541,545.778,543.74,0.0
49423.0,STARLINK-3149,PAYLOAD,2024-02-23 11:38:25,15.07209515,0.0001735,53.2192,334.5472,75.9,284.2184,0.00025128,3.544e-05,0.0,0 STARLINK-3149,1 49423U 21104R   24054.48502018  .00003544  00000-0  25128-3 0  9990,2 49423  53.2192 334.5472 0001735  75.9000 284.2184 15.07209515127218,6922.869,95.541,545.935,543.533,0.0
49423.0,STARLINK-3149,PAYLOAD,2024-02-23 22:46:52,15.07203144,0.0001804,53.2197,332.4697,84.5855,275.5343,4.3088e-05,3.72e-06,0.0,0 STARLINK-3149,1 49423U 21104R   24054.94921335  .00000372  00000-0  43088-4 0  9990,2 49423  53.2197 332.4697 0001804  84.5855 275.5343 15.07203144126198,6922.888,95.541,546.002,543.504,0.0
49423.0,STARLINK-3149,PAYLOAD,2024-02-24 01:57:50,15.07210231,0.0001682,53.2187,331.8755,80.9236,279.1945,-1.1e-05,-4.51e-06,0.0,0 STARLINK-3149,1 49423U 21104R   24055.08183375 -.00000451  00000-0 -11000-4 0  9999,2 49423  53.2187 331.8755 0001682  80.9236 279.1945 15.07210231127309,6922.866,95.541,545.896,543.567,0.0
49423.0,STARLINK-3149,PAYLOAD,2024-02-24 11:30:46,15.07214129,0.0001841,53.2196,330.095,84.9442,275.1759,3.5389e-05,2.55e-06,0.0,0 STARLINK-3149,1 49423U 21104R   24055.47970092  .00000255  00000-0  35389-4 0  9998,2 49423  53.2196 330.0950 0001841  84.9442 275.1759 15.07214129126271,6922.854,95.541,545.994,543.445,0.0
49423.0,STARLINK-3149,PAYLOAD,2024-02-25 11:23:05,15.07220211,0.0001557,53.2191,325.6384,87.1417,272.9753,-2.3695e-05,-6.44e-06,0.0,0 STARLINK-3149,1 49423U 21104R   24056.47436862 -.00000644  00000-0 -23695-4 0  9992,2 49423  53.2191 325.6384 0001557  87.1417 272.9753 15.07220211127514,6922.836,95.54,545.779,543.623,0.0
49423.0,STARLINK-3149,PAYLOAD,2024-02-25 17:45:03,15.07208175,0.0001623,53.2174,324.4521,82.0435,278.074,0.00010559,1.324e-05,0.0,0 STARLINK-3149,1 49423U 21104R   24056.73962050  .00001324  00000-0  10559-3 0  9992,2 49423  53.2174 324.4521 0001623  82.0435 278.0740 15.07208175127555,6922.873,95.541,545.861,543.614,0.0
49423.0,STARLINK-3149,PAYLOAD,2024-02-25 22:31:30,15.07212087,0.0001839,53.217,323.5607,82.9889,277.1312,0.00017958,2.452e-05,0.0,0 STARLINK-3149,1 49423U 21104R   24056.93855252  .00002452  00000-0  17958-3 0  9992,2 49423  53.2170 323.5607 0001839  82.9889 277.1312 15.07212087126491,6922.861,95.541,545.999,543.453,0.0
49423.0,STARLINK-3149,PAYLOAD,2024-02-26 03:17:58,15.07214923,0.00015,53.217,322.671,82.7898,277.3264,0.00012263,1.584e-05,0.0,0 STARLINK-3149,1 49423U 21104R   24057.13748634  .00001584  00000-0  12263-3 0  9999,2 49423  53.2170 322.6710 0001500  82.7898 277.3264 15.07214923126522,6922.852,95.54,545.755,543.679,0.0
49423.0,STARLINK-3149,PAYLOAD,2024-02-26 17:37:26,15.07173096,0.0001428,53.2171,319.9973,84.1518,275.9636,-0.00024889,-4.066e-05,0.0,0 STARLINK-3149,1 49423U 21104R   24057.73433637 -.00004066  00000-0 -24889-3 0  9996,2 49423  53.2171 319.9973 0001428  84.1518 275.9636 15.07173096127700,6922.98,95.543,545.834,543.857,0.0
49423.0,STARLINK-3149,PAYLOAD,2024-02-26 20:48:24,15.07177296,7.49e-05,53.2153,319.4039,129.1485,230.9573,-0.00019558,-3.256e-05,0.0,0 STARLINK-3149,1 49423U 21104R   24057.86695280 -.00003256  00000-0 -19558-3 0  9991,2 49423  53.2153 319.4039 0000749 129.1485 230.9573 15.07177296126634,6922.967,95.543,545.351,544.314,0.0
49423.0,STARLINK-3149,PAYLOAD,2024-02-26 23:59:23,15.07171589,0.0001397,53.218,318.8143,79.7399,280.375,-7.7002e-05,-1.454e-05,0.0,0 STARLINK-3149,1 49423U 21104R   24057.99958115 -.00001454  00000-0 -77002-4 0  9991,2 49423  53.2180 318.8143 0001397  79.7399 280.3750 15.07171589127745,6922.985,95.543,545.817,543.883,0.0
49423.0,STARLINK-3149,PAYLOAD,2024-02-27 17:29:44,15.07208789,0.0001056,53.2155,315.5451,88.4039,271.7073,0.00012493,1.619e-05,0.0,0 STARLINK-3149,1 49423U 21104R   24058.72898567  .00001619  00000-0  12493-3 0  9990,2 49423  53.2155 315.5451 0001056  88.4039 271.7073 15.07208789127850,6922.871,95.541,545.467,544.005,0.0
49423.0,STARLINK-3149,PAYLOAD,2024-02-27 22:16:11,15.07219418,0.0001695,53.2193,314.6597,63.8612,296.2554,0.0002273,3.179e-05,0.0,0 STARLINK-3149,1 49423U 21104R   24058.92791606  .00003179  00000-0  22730-3 0  9996,2 49423  53.2193 314.6597 0001695  63.8612 296.2554 15.07219418126795,6922.838,95.54,545.877,543.53,0.0
49423.0,STARLINK-3149,PAYLOAD,2024-02-28 03:02:40,15.0722798,0.0001248,53.2163,313.7638,86.1529,273.9605,0.00047177,6.909e-05,0.0,0 STARLINK-3149,1 49423U 21104R   24059.12685221  .00006909  00000-0  47177-3 0  9990,2 49423  53.2163 313.7638 0001248  86.1529 273.9605 15.07227980127914,6922.812,95.54,545.541,543.813,0.0
49423.0,STARLINK-3149,PAYLOAD,2024-02-28 09:24:37,15.07218365,0.0001345,53.2161,312.5724,83.6546,276.4598,0.00037185,5.383e-05,0.0,0 STARLINK-3149,1 49423U 21104R   24059.39210199  .00005383  00000-0  37185-3 0  9990,2 49423  53.2161 312.5724 0001345  83.6546 276.4598 15.07218365127954,6922.842,95.54,545.638,543.775,0.0
49423.0,STARLINK-3149,PAYLOAD,2024-02-28 22:08:33,15.07201615,0.0001456,53.2197,310.2033,110.125,249.9898,0.00020892,2.898e-05,0.0,0 STARLINK-3149,1 49423U 21104R   24059.92261027  .00002898  00000-0  20892-3 0  9990,2 49423  53.2197 310.2033 0001456 110.1250 249.9898 15.07201615126948,6922.893,95.541,545.766,543.75,0.0
49423.0,STARLINK-3149,PAYLOAD,2024-02-29 02:55:01,15.07206936,0.0001558,53.2184,309.3116,104.4693,255.6472,0.00021336,2.966e-05,0.0,0 STARLINK-3149,1 49423U 21104R   24060.12154280  .00002966  00000-0  21336-3 0  9996,2 49423  53.2184 309.3116 0001558 104.4693 255.6472 15.07206936128063,6922.877,95.541,545.82,543.663,0.0
49423.0,STARLINK-3149,PAYLOAD,2024-02-29 10:52:27,15.07211289,0.0001174,53.2151,307.8253,89.8235,270.2891,-3.5464e-05,-8.23e-06,0.0,0 STARLINK-3149,1 49423U 21104R   24060.45309636 -.00000823  00000-0 -35464-4 0  9999,2 49423  53.2151 307.8253 0001174  89.8235 270.2891 15.07211289127024,6922.863,95.541,545.541,543.915,0.0
49423.0,STARLINK-3149,PAYLOAD,2024-02-29 20:25:23,15.07217605,0.0001378,53.2153,306.0436,92.0049,268.11,-9.1536e-05,-1.677e-05,0.0,0 STARLINK-3149,1 49423U 21104R   24060.85096257 -.00001677  00000-0 -91536-4 0  9995,2 49423  53.2153 306.0436 0001378  92.0049 268.1100 15.07217605128179,6922.844,95.54,545.663,543.755,0.0
49423.0,STARLINK-3149,PAYLOAD,2024-02-29 22:00:52,15.07216631,0.0001333,53.2154,305.7467,88.6824,271.432,-9.1868e-05,-1.682e-05,0.0,0 STARLINK-3149,1 49423U 21104R   24060.91727453 -.00001682  00000-0 -91868-4 0  9995,2 49423  53.2154 305.7467 0001333  88.6824 271.4320 15.07216631127092,6922.847,95.54,545.635,543.789,0.0
49423.0,STARLINK-3149,PAYLOAD,2024-03-01 09:09:17,15.07214711,0.0001002,53.2172,303.6675,94.7629,265.3477,-7.5843e-05,-1.438e-05,0.0,0 STARLINK-3149,1 49423U 21104R   24061.38145599 -.00001438  00000-0 -75843-4 0  9996,2 49423  53.2172 303.6675 0001002  94.7629 265.3477 15.07214711127164,6922.853,95.54,545.411,544.024,0.0
